NORAD_CAT_ID,OBJECT_NAME,OBJECT_TYPE,EPOCH,MEAN_MOTION,ECCENTRICITY,INCLINATION,RA_OF_ASC_NODE,ARG_OF_PERICENTER,MEAN_ANOMALY,BSTAR,MEAN_MOTION_DOT,MEAN_MOTION_DDOT,TLE_LINE0,TLE_LINE1,TLE_LINE2,SEMIMAJOR_AXIS,PERIOD,APOGEE,PERIGEE,DECAYED
52281.0,STARLINK-3779,PAYLOAD,2024-01-01 09:55:09,15.08838618,0.0001167,53.2173,92.7212,95.8407,264.2719,6.9879e-06,-1.77e-06,0.0,0 STARLINK-3779,1 52281U 22041W   24001.41330092 -.00000177  00000-0  69879-5 0  9996,2 52281  53.2173  92.7212 0001167  95.8407 264.2719 15.08838618 93856,6917.885,95.438,540.557,538.942,0.0
52281.0,STARLINK-3779,PAYLOAD,2024-01-02 11:21:19,15.08839191,0.0001133,53.2176,87.9643,84.4276,275.6845,6.099e-05,6.83e-06,0.0,0 STARLINK-3779,1 52281U 22041W   24002.47314223  .00000683  00000-0  60990-4 0  9996,2 52281  53.2176  87.9643 0001133  84.4276 275.6845 15.08839191 95231,6917.883,95.438,540.532,538.964,0.0
52281.0,STARLINK-3779,PAYLOAD,2024-01-02 12:56:42,15.0884139,0.0001149,53.2178,87.6669,79.9907,280.1214,7.6569e-05,9.31e-06,0.0,0 STARLINK-3779,1 52281U 22041W   24002.53938055  .00000931  00000-0  76569-4 0  9993,2 52281  53.2178  87.6669 0001149  79.9907 280.1214 15.08841390 94026,6917.876,95.437,540.536,538.946,0.0
52281.0,STARLINK-3779,PAYLOAD,2024-01-03 11:12:07,15.08827767,0.0001376,53.2183,83.5053,54.5813,305.5307,7.6624e-06,-1.66e-06,0.0,0 STARLINK-3779,1 52281U 22041W   24003.46675670 -.00000166  00000-0  76624-5 0  9991,2 52281  53.2183  83.5053 0001376  54.5813 305.5307 15.08827767 95388,6917.918,95.438,540.735,538.831,0.0
52281.0,STARLINK-3779,PAYLOAD,2024-01-03 12:47:30,15.08831515,0.0001276,53.2182,83.2073,71.7189,288.3941,-5.9584e-06,-3.83e-06,0.0,0 STARLINK-3779,1 52281U 22041W   24003.53299421 -.00000383  00000-0 -59584-5 0  9993,2 52281  53.2182  83.2073 0001276  71.7189 288.3941 15.08831515 94176,6917.906,95.438,540.654,538.889,0.0
52281.0,STARLINK-3779,PAYLOAD,2024-01-04 11:02:53,15.08848664,0.0001437,53.2191,79.0424,68.5631,291.5514,6.6446e-05,7.7e-06,0.0,0 STARLINK-3779,1 52281U 22041W   24004.46034241  .00000770  00000-0  66446-4 0  9995,2 52281  53.2191  79.0424 0001437  68.5631 291.5514 15.08848664 95530,6917.854,95.437,540.713,538.725,0.0
52281.0,STARLINK-3779,PAYLOAD,2024-01-04 12:38:16,15.08846643,0.0001832,53.2187,78.7458,57.0245,303.0923,7.3588e-05,8.83e-06,0.0,0 STARLINK-3779,1 52281U 22041W   24004.52658452  .00000883  00000-0  73588-4 0  9998,2 52281  53.2187  78.7458 0001832  57.0245 303.0923 15.08846643 94325,6917.86,95.437,540.992,538.458,0.0
52281.0,STARLINK-3779,PAYLOAD,2024-01-04 23:45:59,15.0883441,0.0001124,53.2189,76.6636,96.781,263.331,6.8451e-05,8.02e-06,0.0,0 STARLINK-3779,1 52281U 22041W   24004.99026868  .00000802  00000-0  68451-4 0  9993,2 52281  53.2189  76.6636 0001124  96.7810 263.3310 15.08834410 95614,6917.897,95.438,540.54,538.985,0.0
52281.0,STARLINK-3779,PAYLOAD,2024-01-05 14:04:27,15.08835917,0.0001658,53.2186,73.9868,115.6489,244.4675,3.7629e-05,3.11e-06,0.0,0 STARLINK-3779,1 52281U 22041W   24005.58643037  .00000311  00000-0  37629-4 0  9990,2 52281  53.2186  73.9868 0001658 115.6489 244.4675 15.08835917 94484,6917.893,95.438,540.905,538.611,0.0
52281.0,STARLINK-3779,PAYLOAD,2024-01-06 10:44:27,15.08855083,0.0001427,53.2182,70.1231,103.0679,257.0472,-2.6356e-05,-7.08e-06,0.0,0 STARLINK-3779,1 52281U 22041W   24006.44753998 -.00000708  00000-0 -26356-4 0  9991,2 52281  53.2182  70.1231 0001427 103.0679 257.0472 15.08855083 95830,6917.834,95.437,540.686,538.712,0.0
52281.0,STARLINK-3779,PAYLOAD,2024-01-06 13:55:13,15.08857092,0.0001446,53.2177,69.527,112.9329,247.1816,-1.2911e-05,-4.94e-06,0.0,0 STARLINK-3779,1 52281U 22041W   24006.58001662 -.00000494  00000-0 -12911-4 0  9994,2 52281  53.2177  69.5270 0001446 112.9329 247.1816 15.08857092 94632,6917.828,95.436,540.693,538.693,0.0
52281.0,STARLINK-3779,PAYLOAD,2024-01-07 04:13:42,15.08830862,0.0001646,53.2177,66.8497,110.1899,249.927,2.0028e-05,3.1e-07,0.0,0 STARLINK-3779,1 52281U 22041W   24007.17619117  .00000031  00000-0  20028-4 0  9993,2 52281  53.2177  66.8497 0001646 110.1899 249.9270 15.08830862 95942,6917.908,95.438,540.912,538.635,0.0
52281.0,STARLINK-3779,PAYLOAD,2024-01-07 10:35:15,15.0883479,0.0001682,53.2181,65.6636,96.8605,263.2579,6.1032e-05,6.83e-06,0.0,0 STARLINK-3779,1 52281U 22041W   24007.44114951  .00000683  00000-0  61032-4 0  9992,2 52281  53.2181  65.6636 0001682  96.8605 263.2579 15.08834790 94768,6917.896,95.438,540.925,538.598,0.0
52281.0,STARLINK-3779,PAYLOAD,2024-01-08 04:04:29,15.08837993,0.0001697,53.2185,62.3951,88.7414,271.3773,-1.078e-05,-4.6e-06,0.0,0 STARLINK-3779,1 52281U 22041W   24008.16979129 -.00000460  00000-0 -10780-4 0  9997,2 52281  53.2185  62.3951 0001697  88.7414 271.3773 15.08837993 96092,6917.887,95.438,540.925,538.578,0.0
52281.0,STARLINK-3779,PAYLOAD,2024-01-08 10:26:02,15.08841117,0.0001732,53.219,61.2066,92.9437,267.1754,1.6845e-05,-2e-07,0.0,0 STARLINK-3779,1 52281U 22041W   24008.43474854 -.00000020  00000-0  16845-4 0  9991,2 52281  53.2190  61.2066 0001732  92.9437 267.1754 15.08841117 94919,6917.877,95.437,540.94,538.544,0.0
52281.0,STARLINK-3779,PAYLOAD,2024-01-09 08:41:26,15.08839746,0.0001723,53.2188,57.0424,97.1369,262.9819,1.3774e-05,-6.9e-07,0.0,0 STARLINK-3779,1 52281U 22041W   24009.36210977 -.00000069  00000-0  13774-4 0  9999,2 52281  53.2188  57.0424 0001723  97.1369 262.9819 15.08839746 96279,6917.881,95.438,540.938,538.554,0.0
52281.0,STARLINK-3779,PAYLOAD,2024-01-10 10:07:36,15.0883644,0.0001663,53.2173,52.2812,94.0008,266.1175,5.1609e-05,5.33e-06,0.0,0 STARLINK-3779,1 52281U 22041W   24010.42195283  .00000533  00000-0  51609-4 0  9994,2 52281  53.2173  52.2812 0001663  94.0008 266.1175 15.08836440 96437,6917.891,95.438,540.907,538.606,0.0
52281.0,STARLINK-3779,PAYLOAD,2024-01-11 08:23:00,15.08844452,0.0001717,53.2181,48.1184,103.5215,256.5968,8.7679e-05,1.108e-05,0.0,0 STARLINK-3779,1 52281U 22041W   24011.34930684  .00001108  00000-0  87679-4 0  9993,2 52281  53.2181  48.1184 0001717 103.5215 256.5968 15.08844452 96578,6917.867,95.437,540.92,538.544,0.0
52281.0,STARLINK-3779,PAYLOAD,2024-01-12 01:52:15,15.08836308,0.0001573,53.2183,44.8501,72.2465,287.8699,6.3253e-05,7.19e-06,0.0,0 STARLINK-3779,1 52281U 22041W   24012.07795433  .00000719  00000-0  63253-4 0  9994,2 52281  53.2183  44.8501 0001573  72.2465 287.8699 15.08836308 96686,6917.892,95.438,540.845,538.668,0.0
52281.0,STARLINK-3779,PAYLOAD,2024-01-12 08:13:47,15.08835949,0.0001724,53.2172,43.6589,74.4529,285.6654,4.707e-05,4.61e-06,0.0,0 STARLINK-3779,1 52281U 22041W   24012.34291574  .00000461  00000-0  47070-4 0  9994,2 52281  53.2172  43.6589 0001724  74.4529 285.6654 15.08835949 95507,6917.893,95.438,540.95,538.565,0.0
52281.0,STARLINK-3779,PAYLOAD,2024-01-13 11:15:20,15.08853147,0.0001829,53.217,38.6013,100.6284,259.4914,-0.0001113,-2.06e-05,0.0,0 STARLINK-3779,1 52281U 22041W   24013.46898943 -.00002060  00000-0 -11130-3 0  9997,2 52281  53.2170  38.6013 0001829 100.6284 259.4914 15.08853147 96898,6917.84,95.437,540.97,538.44,0.0
52281.0,STARLINK-3779,PAYLOAD,2024-01-14 04:44:35,15.08832243,0.0002075,53.2179,35.3257,129.6392,230.4783,0.00016255,2.299e-05,0.0,0 STARLINK-3779,1 52281U 22041W   24014.19763410  .00002299  00000-0  16255-3 0  9993,2 52281  53.2179  35.3257 0002075 129.6392 230.4783 15.08832243 97007,6917.904,95.438,541.205,538.334,0.0
52281.0,STARLINK-3779,PAYLOAD,2024-01-14 11:06:07,15.08845432,0.0001758,53.2173,34.1402,103.3323,256.7865,0.00011805,1.591e-05,0.0,0 STARLINK-3779,1 52281U 22041W   24014.46258953  .00001591  00000-0  11805-3 0  9994,2 52281  53.2173  34.1402 0001758 103.3323 256.7865 15.08845432 97040,6917.864,95.437,540.945,538.513,0.0
52281.0,STARLINK-3779,PAYLOAD,2024-01-15 01:24:36,15.08838684,0.0001552,53.2165,31.4622,97.4688,262.6481,1.7724e-05,-6e-08,0.0,0 STARLINK-3779,1 52281U 22041W   24015.05875784 -.00000006  00000-0  17724-4 0  9995,2 52281  53.2165  31.4622 0001552  97.4688 262.6481 15.08838684 97135,6917.884,95.438,540.823,538.676,0.0
52281.0,STARLINK-3779,PAYLOAD,2024-01-15 10:56:54,15.0884672,0.0001665,53.2171,29.6795,102.6156,257.5022,8.4468e-05,1.057e-05,0.0,0 STARLINK-3779,1 52281U 22041W   24015.45619013  .00001057  00000-0  84468-4 0  9995,2 52281  53.2171  29.6795 0001665 102.6156 257.5022 15.08846720 97196,6917.86,95.437,540.877,538.573,0.0
52281.0,STARLINK-3779,PAYLOAD,2024-01-16 02:50:47,15.08833737,0.0001885,53.2178,26.7002,128.0132,232.1031,-2.6269e-05,-7.06e-06,0.0,0 STARLINK-3779,1 52281U 22041W   24016.11860128 -.00000706  00000-0 -26269-4 0  9991,2 52281  53.2178  26.7002 0001885 128.0132 232.1031 15.08833737 97296,6917.9,95.438,541.069,538.461,0.0
52281.0,STARLINK-3779,PAYLOAD,2024-01-16 07:36:56,15.08833813,0.0001944,53.219,25.8076,128.5647,231.552,3.3918e-05,2.52e-06,0.0,0 STARLINK-3779,1 52281U 22041W   24016.31732086  .00000252  00000-0  33918-4 0  9997,2 52281  53.2190  25.8076 0001944 128.5647 231.5520 15.08833813 96103,6917.899,95.438,541.109,538.419,0.0
52281.0,STARLINK-3779,PAYLOAD,2024-01-17 04:16:57,15.08833357,0.0001646,53.2193,21.9432,108.1935,251.9237,9.9259e-05,1.292e-05,0.0,0 STARLINK-3779,1 52281U 22041W   24017.17844264  .00001292  00000-0  99259-4 0  9999,2 52281  53.2193  21.9432 0001646 108.1935 251.9237 15.08833357 97455,6917.901,95.438,540.904,538.627,0.0
52281.0,STARLINK-3779,PAYLOAD,2024-01-17 05:52:20,15.08834683,0.0001652,53.2193,21.6458,108.5345,251.5827,0.00011027,1.467e-05,0.0,0 STARLINK-3779,1 52281U 22041W   24017.24468217  .00001467  00000-0  11027-3 0  9997,2 52281  53.2193  21.6458 0001652 108.5345 251.5827 15.08834683 96246,6917.897,95.438,540.904,538.619,0.0
52281.0,STARLINK-3779,PAYLOAD,2024-01-18 08:53:53,15.08844276,0.0001707,53.2184,16.5939,103.7225,256.3957,0.0001252,1.705e-05,0.0,0 STARLINK-3779,1 52281U 22041W   24018.37075876  .00001705  00000-0  12520-3 0  9991,2 52281  53.2184  16.5939 0001707 103.7225 256.3957 15.08844276 97638,6917.867,95.437,540.913,538.551,0.0
